{
  "type": "FeatureCollection",
  "features": [
    {
      "type": "Feature",
      "properties": {
        "norad_id": 38755,
        "name": "SPOT 6",
        "group": "resource",
        "lat": -10.639987775065457,
        "lon": -123.5882775117526,
        "alt_km": 702.536589325443,
        "timestamp": "2025-12-19T06:59:43.560941+00:00",
        "meta_object_name": "SPOT 6",
        "meta_object_id": "2012-047A",
        "meta_epoch": "2025-12-18T23:32:18.331872",
        "meta_mean_motion": 14.58537489,
        "meta_eccentricity": 0.00013301,
        "meta_inclination": 98.1572,
        "meta_ra_of_asc_node": 57.6509,
        "meta_arg_of_pericenter": 77.9867,
        "meta_mean_anomaly": 282.1481,
        "meta_ephemeris_type": 0,
        "meta_classification_type": "U",
        "meta_norad_cat_id": 38755,
        "meta_element_set_no": 999,
        "meta_rev_at_epoch": 70678,
        "meta_bstar": 6.3113664e-05,
        "meta_mean_motion_dot": 2.48e-06,
        "meta_mean_motion_ddot": 0,
        "tle_line1": "1 38755U 12047A   25352.98076773  .00000248  00000+0  63114-4 0  9998",
        "tle_line2": "2 38755  98.1572  57.6509 0001330  77.9867 282.1481 14.58537489706783"
      },
      "geometry": {
        "type": "Point",
        "coordinates": [
          -123.5882775117526,
          -10.639987775065457
        ]
      }
    },
    {
      "type": "Feature",
      "properties": {
        "norad_id": 39019,
        "name": "PLEIADES 1B",
        "group": "resource",
        "lat": 81.69461347231118,
        "lon": -14.309948081765622,
        "alt_km": 689.5457033342809,
        "timestamp": "2025-12-19T06:59:43.560951+00:00",
        "meta_object_name": "PLEIADES 1B",
        "meta_object_id": "2012-068A",
        "meta_epoch": "2025-12-18T22:21:31.392576",
        "meta_mean_motion": 14.58558121,
        "meta_eccentricity": 0.00011701,
        "meta_inclination": 98.1793,
        "meta_ra_of_asc_node": 65.4859,
        "meta_arg_of_pericenter": 85.0454,
        "meta_mean_anomaly": 275.0879,
        "meta_ephemeris_type": 0,
        "meta_classification_type": "U",
        "meta_norad_cat_id": 39019,
        "meta_element_set_no": 999,
        "meta_rev_at_epoch": 69457,
        "meta_bstar": 6.8252755e-05,
        "meta_mean_motion_dot": 2.72e-06,
        "meta_mean_motion_ddot": 0,
        "tle_line1": "1 39019U 12068A   25352.93161334  .00000272  00000+0  68253-4 0  9994",
        "tle_line2": "2 39019  98.1793  65.4859 0001170  85.0454 275.0879 14.58558121694572"
      },
      "geometry": {
        "type": "Point",
        "coordinates": [
          -14.309948081765622,
          81.69461347231118
        ]
      }
    },
    {
      "type": "Feature",
      "properties": {
        "norad_id": 39030,
        "name": "GOKTURK 2",
        "group": "resource",
        "lat": -21.968254066258126,
        "lon": -162.25366936911286,
        "alt_km": 650.1186317989004,
        "timestamp": "2025-12-19T06:59:43.560961+00:00",
        "meta_object_name": "GOKTURK 2",
        "meta_object_id": "2012-073A",
        "meta_epoch": "2025-12-18T22:57:24.663744",
        "meta_mean_motion": 14.75300607,
        "meta_eccentricity": 0.00012024,
        "meta_inclination": 97.689,
        "meta_ra_of_asc_node": 194.304,
        "meta_arg_of_pericenter": 108.8295,
        "meta_mean_anomaly": 251.3046,
        "meta_ephemeris_type": 0,
        "meta_classification_type": "U",
        "meta_norad_cat_id": 39030,
        "meta_element_set_no": 999,
        "meta_rev_at_epoch": 69793,
        "meta_bstar": 0.00010687848,
        "meta_mean_motion_dot": 6.77e-06,
        "meta_mean_motion_ddot": 0,
        "tle_line1": "1 39030U 12073A   25352.95653546  .00000677  00000+0  10688-3 0  9993",
        "tle_line2": "2 39030  97.6890 194.3040 0001202 108.8295 251.3046 14.75300607697933"
      },
      "geometry": {
        "type": "Point",
        "coordinates": [
          -162.25366936911286,
          -21.968254066258126
        ]
      }
    },
    {
      "type": "Feature",
      "properties": {
        "norad_id": 39084,
        "name": "LANDSAT 8",
        "group": "resource",
        "lat": -44.202146483696566,
        "lon": -126.80011527808391,
        "alt_km": 709.7700701119966,
        "timestamp": "2025-12-19T06:59:43.560972+00:00",
        "meta_object_name": "LANDSAT 8",
        "meta_object_id": "2013-008A",
        "meta_epoch": "2025-12-18T21:43:37.513920",
        "meta_mean_motion": 14.5710876,
        "meta_eccentricity": 0.00010841,
        "meta_inclination": 98.2066,
        "meta_ra_of_asc_node": 60.8876,
        "meta_arg_of_pericenter": 89.425,
        "meta_mean_anomaly": 270.7073,
        "meta_ephemeris_type": 0,
        "meta_classification_type": "U",
        "meta_norad_cat_id": 39084,
        "meta_element_set_no": 999,
        "meta_rev_at_epoch": 67164,
        "meta_bstar": 8.1699608e-05,
        "meta_mean_motion_dot": 3.23e-06,
        "meta_mean_motion_ddot": 0,
        "tle_line1": "1 39084U 13008A   25352.90529530  .00000323  00000+0  81700-4 0  9993",
        "tle_line2": "2 39084  98.2066  60.8876 0001084  89.4250 270.7073 14.57108760671642"
      },
      "geometry": {
        "type": "Point",
        "coordinates": [
          -126.80011527808391,
          -44.202146483696566
        ]
      }
    },
    {
      "type": "Feature",
      "properties": {
        "norad_id": 39086,
        "name": "SARAL",
        "group": "resource",
        "lat": -3.254615872214857,
        "lon": 177.62640438982402,
        "alt_km": 786.214486828313,
        "timestamp": "2025-12-19T06:59:43.560982+00:00",
        "meta_object_name": "SARAL",
        "meta_object_id": "2013-009A",
        "meta_epoch": "2025-12-18T22:37:49.824192",
        "meta_mean_motion": 14.32759159,
        "meta_eccentricity": 0.00029457,
        "meta_inclination": 98.5502,
        "meta_ra_of_asc_node": 176.7924,
        "meta_arg_of_pericenter": 97.152,
        "meta_mean_anomaly": 262.9999,
        "meta_ephemeris_type": 0,
        "meta_classification_type": "U",
        "meta_norad_cat_id": 39086,
        "meta_element_set_no": 999,
        "meta_rev_at_epoch": 66979,
        "meta_bstar": 5.1814087e-05,
        "meta_mean_motion_dot": 9.7e-07,
        "meta_mean_motion_ddot": 0,
        "tle_line1": "1 39086U 13009A   25352.94293778  .00000097  00000+0  51814-4 0  9993",
        "tle_line2": "2 39086  98.5502 176.7924 0002945  97.1520 262.9999 14.32759159669796"
      },
      "geometry": {
        "type": "Point",
        "coordinates": [
          177.62640438982402,
          -3.254615872214857
        ]
      }
    },
    {
      "type": "Feature",
      "properties": {
        "norad_id": 39150,
        "name": "GAOFEN-1",
        "group": "resource",
        "lat": 80.76770545133628,
        "lon": 4.761167388937026,
        "alt_km": 622.5239212964825,
        "timestamp": "2025-12-19T06:59:43.560992+00:00",
        "meta_object_name": "GAOFEN-1",
        "meta_object_id": "2013-018A",
        "meta_epoch": "2025-12-18T22:28:44.043168",
        "meta_mean_motion": 14.76543912,
        "meta_eccentricity": 0.00185081,
        "meta_inclination": 97.9326,
        "meta_ra_of_asc_node": 63.4868,
        "meta_arg_of_pericenter": 123.9797,
        "meta_mean_anomaly": 236.3175,
        "meta_ephemeris_type": 0,
        "meta_classification_type": "U",
        "meta_norad_cat_id": 39150,
        "meta_element_set_no": 999,
        "meta_rev_at_epoch": 68164,
        "meta_bstar": 6.7107809e-05,
        "meta_mean_motion_dot": 4.18e-06,
        "meta_mean_motion_ddot": 0,
        "tle_line1": "1 39150U 13018A   25352.93662087  .00000418  00000+0  67108-4 0  9997",
        "tle_line2": "2 39150  97.9326  63.4868 0018508 123.9797 236.3175 14.76543912681645"
      },
      "geometry": {
        "type": "Point",
        "coordinates": [
          4.761167388937026,
          80.76770545133628
        ]
      }
    },
    {
      "type": "Feature",
      "properties": {
        "norad_id": 39160,
        "name": "VNREDSAT 1",
        "group": "resource",
        "lat": -53.72309289859066,
        "lon": -142.62086161891264,
        "alt_km": 685.0820278536194,
        "timestamp": "2025-12-19T06:59:43.561002+00:00",
        "meta_object_name": "VNREDSAT 1",
        "meta_object_id": "2013-021B",
        "meta_epoch": "2025-12-18T23:22:17.487264",
        "meta_mean_motion": 14.64931522,
        "meta_eccentricity": 0.0001212,
        "meta_inclination": 97.9373,
        "meta_ra_of_asc_node": 48.0307,
        "meta_arg_of_pericenter": 79.7089,
        "meta_mean_anomaly": 280.4251,
        "meta_ephemeris_type": 0,
        "meta_classification_type": "U",
        "meta_norad_cat_id": 39160,
        "meta_element_set_no": 999,
        "meta_rev_at_epoch": 67390,
        "meta_bstar": 9.985309e-05,
        "meta_mean_motion_dot": 4.89e-06,
        "meta_mean_motion_ddot": 0,
        "tle_line1": "1 39160U 13021B   25352.97381351  .00000489  00000+0  99853-4 0  9998",
        "tle_line2": "2 39160  97.9373  48.0307 0001212  79.7089 280.4251 14.64931522673901"
      },
      "geometry": {
        "type": "Point",
        "coordinates": [
          -142.62086161891264,
          -53.72309289859066
        ]
      }
    }
  ]
}